{"type": "FeatureCollection", "features": [ {"type": "Feature", "properties": {"norad_id": 33939, "name": "COSMOS 2251 DEB", "group": "cosmos-2251-debris", "lat": -44.5071847980982, "lon": 50.06943380740509, "alt_km": 571.4946015169362, "timestamp": "2025-12-19T16:54:44.656262+00:00", "meta": {"OBJECT_NAME": "COSMOS 2251 DEB", "OBJECT_ID": "1993-036EU", "EPOCH": "2025-12-19T05:55:06.240864", "MEAN_MOTION": 15.00334458, "ECCENTRICITY": 0.00043009, "INCLINATION": 74.0072, "RA_OF_ASC_NODE": 67.3766, "ARG_OF_PERICENTER": 31.1681, "MEAN_ANOMALY": 328.976, "EPHEMERIS_TYPE": 0, "CLASSIFICATION_TYPE": "U", "NORAD_CAT_ID": 33939, "ELEMENT_SET_NO": 999, "REV_AT_EPOCH": 88850, "BSTAR": 0.001787521, "MEAN_MOTION_DOT": 0.00022468, "MEAN_MOTION_DDOT": 0}, "tle": {"line1": "1 33939U 93036EU  25353.24660001  .00022468  00000+0  17875-2 0  9996", "line2": "2 33939  74.0072  67.3766 0004300  31.1681 328.9760 15.00334458888508"}}, "geometry": {"type": "Point", "coordinates": [50.06943380740509, -44.5071847980982]}}, {"type": "Feature", "properties": {"norad_id": 33940, "name": "COSMOS 2251 DEB", "group": "cosmos-2251-debris", "lat": 48.8087468580742, "lon": -68.85328156710663, "alt_km": 691.0072190186393, "timestamp": "2025-12-19T16:54:44.656273+00:00", "meta": {"OBJECT_NAME": "COSMOS 2251 DEB", "OBJECT_ID": "1993-036EV", "EPOCH": "2025-12-19T03:58:04.228608", "MEAN_MOTION": 14.58852959, "ECCENTRICITY": 0.00110076, "INCLINATION": 74.039, "RA_OF_ASC_NODE": 131.2615, "ARG_OF_PERICENTER": 211.4593, "MEAN_ANOMALY": 325.6152, "EPHEMERIS_TYPE": 0, "CLASSIFICATION_TYPE": "U", "NORAD_CAT_ID": 33940, "ELEMENT_SET_NO": 999, "REV_AT_EPOCH": 88687, "BSTAR": 0.00082721451, "MEAN_MOTION_DOT": 3.848e-05, "MEAN_MOTION_DDOT": 0}, "tle": {"line1": "1 33940U 93036EV  25353.16532672  .00003848  00000+0  82721-3 0  9995", "line2": "2 33940  74.0390 131.2615 0011007 211.4593 325.6152 14.58852959886874"}}, "geometry": {"type": "Point", "coordinates": [-68.85328156710663, 48.8087468580742]}}, {"type": "Feature", "properties": {"norad_id": 33942, "name": "COSMOS 2251 DEB", "group": "cosmos-2251-debris", "lat": 15.356301628976578, "lon": 77.49355359257774, "alt_km": 780.2462478773059, "timestamp": "2025-12-19T16:54:44.656283+00:00", "meta": {"OBJECT_NAME": "COSMOS 2251 DEB", "OBJECT_ID": "1993-036EX", "EPOCH": "2025-12-19T05:00:20.595744", "MEAN_MOTION": 14.37997549, "ECCENTRICITY": 0.00205887, "INCLINATION": 74.0365, "RA_OF_ASC_NODE": 262.9155, "ARG_OF_PERICENTER": 344.9439, "MEAN_ANOMALY": 131.7262, "EPHEMERIS_TYPE": 0, "CLASSIFICATION_TYPE": "U", "NORAD_CAT_ID": 33942, "ELEMENT_SET_NO": 999, "REV_AT_EPOCH": 88227, "BSTAR": 0.00016705247, "MEAN_MOTION_DOT": 4.8e-06, "MEAN_MOTION_DDOT": 0}, "tle": {"line1": "1 33942U 93036EX  25353.20857171  .00000480  00000+0  16705-3 0  9994", "line2": "2 33942  74.0365 262.9155 0020588 344.9439 131.7262 14.37997549882274"}}, "geometry": {"type": "Point", "coordinates": [77.49355359257774, 15.356301628976578]}}, {"type": "Feature", "properties": {"norad_id": 33944, "name": "COSMOS 2251 DEB", "group": "cosmos-2251-debris", "lat": 21.01064226690315, "lon": -57.57767133873785, "alt_km": 688.1060631945384, "timestamp": "2025-12-19T16:54:44.656294+00:00", "meta": {"OBJECT_NAME": "COSMOS 2251 DEB", "OBJECT_ID": "1993-036EZ", "EPOCH": "2025-12-19T07:32:06.789408", "MEAN_MOTION": 14.37357165, "ECCENTRICITY": 0.01124582, "INCLINATION": 74.0406, "RA_OF_ASC_NODE": 296.8308, "ARG_OF_PERICENTER": 34.7445, "MEAN_ANOMALY": 126.5793, "EPHEMERIS_TYPE": 0, "CLASSIFICATION_TYPE": "U", "NORAD_CAT_ID": 33944, "ELEMENT_SET_NO": 999, "REV_AT_EPOCH": 88122, "BSTAR": 0.0002620312, "MEAN_MOTION_DOT": 8.14e-06, "MEAN_MOTION_DDOT": 0}, "tle": {"line1": "1 33944U 93036EZ  25353.31396747  .00000814  00000+0  26203-3 0  9990", "line2": "2 33944  74.0406 296.8308 0112458  34.7445 126.5793 14.37357165881226"}}, "geometry": {"type": "Point", "coordinates": [-57.57767133873785, 21.01064226690315]}}, {"type": "Feature", "properties": {"norad_id": 33945, "name": "COSMOS 2251 DEB", "group": "cosmos-2251-debris", "lat": 67.13861858964326, "lon": 70.72519414854138, "alt_km": 769.050400063712, "timestamp": "2025-12-19T16:54:44.656304+00:00", "meta": {"OBJECT_NAME": "COSMOS 2251 DEB", "OBJECT_ID": "1993-036FA", "EPOCH": "2025-12-19T04:42:14.337792", "MEAN_MOTION": 14.34605746, "ECCENTRICITY": 0.00221837, "INCLINATION": 74.0302, "RA_OF_ASC_NODE": 294.4369, "ARG_OF_PERICENTER": 19.0252, "MEAN_ANOMALY": 341.1723, "EPHEMERIS_TYPE": 0, "CLASSIFICATION_TYPE": "U", "NORAD_CAT_ID": 33945, "ELEMENT_SET_NO": 999, "REV_AT_EPOCH": 88108, "BSTAR": 9.5989631e-05, "MEAN_MOTION_DOT": 2.46e-06, "MEAN_MOTION_DDOT": 0}, "tle": {"line1": "1 33945U 93036FA  25353.19599928  .00000246  00000+0  95990-4 0  9992", "line2": "2 33945  74.0302 294.4369 0022183  19.0252 341.1723 14.34605746881080"}}, "geometry": {"type": "Point", "coordinates": [70.72519414854138, 67.13861858964326]}}, {"type": "Feature", "properties": {"norad_id": 33948, "name": "COSMOS 2251 DEB", "group": "cosmos-2251-debris", "lat": -18.432762331395597, "lon": -73.11934343106813, "alt_km": 762.7689854109985, "timestamp": "2025-12-19T16:54:44.656314+00:00", "meta": {"OBJECT_NAME": "COSMOS 2251 DEB", "OBJECT_ID": "1993-036FD", "EPOCH": "2025-12-18T22:36:17.325216", "MEAN_MOTION": 14.35636425, "ECCENTRICITY": 0.00230003, "INCLINATION": 74.0359, "RA_OF_ASC_NODE": 293.7543, "ARG_OF_PERICENTER": 8.033, "MEAN_ANOMALY": 352.1186, "EPHEMERIS_TYPE": 0, "CLASSIFICATION_TYPE": "U", "NORAD_CAT_ID": 33948, "ELEMENT_SET_NO": 999, "REV_AT_EPOCH": 88112, "BSTAR": 0.00015379918, "MEAN_MOTION_DOT": 4.19e-06, "MEAN_MOTION_DDOT": 0}, "tle": {"line1": "1 33948U 93036FD  25352.94186719  .00000419  00000+0  15380-3 0  9993", "line2": "2 33948  74.0359 293.7543 0023000   8.0330 352.1186 14.35636425881124"}}, "geometry": {"type": "Point", "coordinates": [-73.11934343106813, -18.432762331395597]}}, {"type": "Feature", "properties": {"norad_id": 33971, "name": "COSMOS 2251 DEB", "group": "cosmos-2251-debris", "lat": 27.14724723661062, "lon": 52.41463821036017, "alt_km": 771.1960759305657, "timestamp": "2025-12-19T16:54:44.656324+00:00", "meta": {"OBJECT_NAME": "COSMOS 2251 DEB", "OBJECT_ID": "1993-036FE", "EPOCH": "2025-12-19T03:34:47.209728", "MEAN_MOTION": 14.39736064, "ECCENTRICITY": 0.00187953, "INCLINATION": 74.0245, "RA_OF_ASC_NODE": 241.8878, "ARG_OF_PERICENTER": 341.2858, "MEAN_ANOMALY": 172.0913, "EPHEMERIS_TYPE": 0, "CLASSIFICATION_TYPE": "U", "NORAD_CAT_ID": 33971, "ELEMENT_SET_NO": 999, "REV_AT_EPOCH": 88231, "BSTAR": 0.00020120345, "MEAN_MOTION_DOT": 6.05e-06, "MEAN_MOTION_DDOT": 0}, "tle": {"line1": "1 33971U 93036FE  25353.14915752  .00000605  00000+0  20120-3 0  9994", "line2": "2 33971  74.0245 241.8878 0018795 341.2858 172.0913 14.39736064882314"}}, "geometry": {"type": "Point", "coordinates": [52.41463821036017, 27.14724723661062]}}, {"type": "Feature", "properties": {"norad_id": 33972, "name": "COSMOS 2251 DEB", "group": "cosmos-2251-debris", "lat": 2.5379670443513533, "lon": 178.5664096309447, "alt_km": 689.3083074523438, "timestamp": "2025-12-19T16:54:44.656351+00:00", "meta": {"OBJECT_NAME": "COSMOS 2251 DEB", "OBJECT_ID": "1993-036FF", "EPOCH": "2025-12-18T23:12:46.905120", "MEAN_MOTION": 14.36266996, "ECCENTRICITY": 0.01235996, "INCLINATION": 73.9933, "RA_OF_ASC_NODE": 179.1952, "ARG_OF_PERICENTER": 345.5656, "MEAN_ANOMALY": 165.109, "EPHEMERIS_TYPE": 0, "CLASSIFICATION_TYPE": "U", "NORAD_CAT_ID": 33972, "ELEMENT_SET_NO": 999, "REV_AT_EPOCH": 87163, "BSTAR": 0.00091407124, "MEAN_MOTION_DOT": 2.886e-05, "MEAN_MOTION_DDOT": 0}, "tle": {"line1": "1 33972U 93036FF  25352.96720955  .00002886  00000+0  91407-3 0  9992", "line2": "2 33972  73.9933 179.1952 0123599 345.5656 165.1090 14.36266996871636"}}, "geometry": {"type": "Point", "coordinates": [178.5664096309447, 2.5379670443513533]}}, {"type": "Feature", "properties": {"norad_id": 33973, "name": "COSMOS 2251 DEB", "group": "cosmos-2251-debris", "lat": -16.776340641759642, "lon": 84.93012211848725, "alt_km": 736.7333867709594, "timestamp": "2025-12-19T16:54:44.656362+00:00", "meta": {"OBJECT_NAME": "COSMOS 2251 DEB", "OBJECT_ID": "1993-036FG", "EPOCH": "2025-12-18T14:56:57.974208", "MEAN_MOTION": 14.4539705, "ECCENTRICITY": 0.00473892, "INCLINATION": 74.0087, "RA_OF_ASC_NODE": 91.9086, "ARG_OF_PERICENTER": 269.2619, "MEAN_ANOMALY": 206.1103, "EPHEMERIS_TYPE": 0, "CLASSIFICATION_TYPE": "U", "NORAD_CAT_ID": 33973, "ELEMENT_SET_NO": 999, "REV_AT_EPOCH": 88685, "BSTAR": 0.00011417305, "MEAN_MOTION_DOT": 3.79e-06, "MEAN_MOTION_DDOT": 0}, "tle": {"line1": "1 33973U 93036FG  25352.62289322  .00000379  00000+0  11417-3 0  9992", "line2": "2 33973  74.0087  91.9086 0047389 269.2619 206.1103 14.45397050886858"}}, "geometry": {"type": "Point", "coordinates": [84.93012211848725, -16.776340641759642]}}, {"type": "Feature", "properties": {"norad_id": 33975, "name": "COSMOS 2251 DEB", "group": "cosmos-2251-debris", "lat": -57.16021864950841, "lon": -81.02355497200134, "alt_km": 786.6480341830684, "timestamp": "2025-12-19T16:54:44.656373+00:00", "meta": {"OBJECT_NAME": "COSMOS 2251 DEB", "OBJECT_ID": "1993-036FJ", "EPOCH": "2025-12-19T05:28:53.307264", "MEAN_MOTION": 14.00537307, "ECCENTRICITY": 0.01911153, "INCLINATION": 73.8018, "RA_OF_ASC_NODE": 73.0471, "ARG_OF_PERICENTER": 204.9448, "MEAN_ANOMALY": 154.2359, "EPHEMERIS_TYPE": 0, "CLASSIFICATION_TYPE": "U", "NORAD_CAT_ID": 33975, "ELEMENT_SET_NO": 999, "REV_AT_EPOCH": 85920, "BSTAR": 0.00039299761, "MEAN_MOTION_DOT": 6.58e-06, "MEAN_MOTION_DDOT": 0}, "tle": {"line1": "1 33975U 93036FJ  25353.22839476  .00000658  00000+0  39300-3 0  9993", "line2": "2 33975  73.8018  73.0471 0191115 204.9448 154.2359 14.00537307859200"}}, "geometry": {"type": "Point", "coordinates": [-81.02355497200134, -57.16021864950841]}}]}